{"type": "FeatureCollection", "features": [ {"type": "Feature", "properties": {"norad_id": 40938, "name": "BEIDOU-3S IGSO-2S (C56)", "group": "gnss", "lat": 39.814158864435704, "lon": -53.77700267096281, "alt_km": 35950.61157657989, "timestamp": "2025-12-19T08:58:49.581369+00:00", "meta": {"OBJECT_NAME": "BEIDOU-3S IGSO-2S (C56)", "OBJECT_ID": "2015-053A", "EPOCH": "2025-12-18T17:10:26.885280", "MEAN_MOTION": 1.00268888, "ECCENTRICITY": 0.00604928, "INCLINATION": 49.5013, "RA_OF_ASC_NODE": 260.935, "ARG_OF_PERICENTER": 188.6507, "MEAN_ANOMALY": 351.508, "EPHEMERIS_TYPE": 0, "CLASSIFICATION_TYPE": "U", "NORAD_CAT_ID": 40938, "ELEMENT_SET_NO": 999, "REV_AT_EPOCH": 3754, "BSTAR": 0, "MEAN_MOTION_DOT": -1.17e-06, "MEAN_MOTION_DDOT": 0}, "tle": {"line1": "1 40938U 15053A   25352.71558895 -.00000117  00000+0  00000+0 0  9991", "line2": "2 40938  49.5013 260.9350 0060492 188.6507 351.5080  1.00268888 37541"}}, "geometry": {"type": "Point", "coordinates": [-53.77700267096281, 39.814158864435704]}}, {"type": "Feature", "properties": {"norad_id": 41019, "name": "GPS BIIF-11 (PRN 10)", "group": "gnss", "lat": 45.610080864306916, "lon": 79.63877941254576, "alt_km": 20468.575615033787, "timestamp": "2025-12-19T08:58:49.581380+00:00", "meta": {"OBJECT_NAME": "GPS BIIF-11 (PRN 10)", "OBJECT_ID": "2015-062A", "EPOCH": "2025-12-18T07:03:43.989696", "MEAN_MOTION": 2.00567221, "ECCENTRICITY": 0.0110964, "INCLINATION": 56.8362, "RA_OF_ASC_NODE": 37.7874, "ARG_OF_PERICENTER": 230.0867, "MEAN_ANOMALY": 128.9943, "EPHEMERIS_TYPE": 0, "CLASSIFICATION_TYPE": "U", "NORAD_CAT_ID": 41019, "ELEMENT_SET_NO": 999, "REV_AT_EPOCH": 7420, "BSTAR": 0, "MEAN_MOTION_DOT": -6.9e-07, "MEAN_MOTION_DDOT": 0}, "tle": {"line1": "1 41019U 15062A   25352.29425914 -.00000069  00000+0  00000+0 0  9996", "line2": "2 41019  56.8362  37.7874 0110964 230.0867 128.9943  2.00567221 74204"}}, "geometry": {"type": "Point", "coordinates": [79.63877941254576, 45.610080864306916]}}, {"type": "Feature", "properties": {"norad_id": 41028, "name": "GSAT-15 (GAGAN/PRN 139)", "group": "gnss", "lat": 0.007831270973465363, "lon": -43.55861144683205, "alt_km": 35784.828447861095, "timestamp": "2025-12-19T08:58:49.581392+00:00", "meta": {"OBJECT_NAME": "GSAT-15 (GAGAN/PRN 139)", "OBJECT_ID": "2015-065A", "EPOCH": "2025-12-18T19:05:45.371328", "MEAN_MOTION": 1.00271726, "ECCENTRICITY": 0.00025136, "INCLINATION": 0.0329, "RA_OF_ASC_NODE": 270.5773, "ARG_OF_PERICENTER": 322.7332, "MEAN_ANOMALY": 234.2757, "EPHEMERIS_TYPE": 0, "CLASSIFICATION_TYPE": "U", "NORAD_CAT_ID": 41028, "ELEMENT_SET_NO": 999, "REV_AT_EPOCH": 3699, "BSTAR": 0, "MEAN_MOTION_DOT": -2.33e-06, "MEAN_MOTION_DDOT": 0}, "tle": {"line1": "1 41028U 15065A   25352.79566402 -.00000233  00000+0  00000+0 0  9995", "line2": "2 41028   0.0329 270.5773 0002513 322.7332 234.2757  1.00271726 36998"}}, "geometry": {"type": "Point", "coordinates": [-43.55861144683205, 0.007831270973465363]}}, {"type": "Feature", "properties": {"norad_id": 41174, "name": "GSAT0209 (GALILEO 12)", "group": "gnss", "lat": -53.207661848851735, "lon": -8.170874183181512, "alt_km": 23228.08814466819, "timestamp": "2025-12-19T08:58:49.581403+00:00", "meta": {"OBJECT_NAME": "GSAT0209 (GALILEO 12)", "OBJECT_ID": "2015-079A", "EPOCH": "2025-12-17T18:49:30.009504", "MEAN_MOTION": 1.70474581, "ECCENTRICITY": 0.00024688, "INCLINATION": 55.7156, "RA_OF_ASC_NODE": 106.2426, "ARG_OF_PERICENTER": 347.1145, "MEAN_ANOMALY": 12.8381, "EPHEMERIS_TYPE": 0, "CLASSIFICATION_TYPE": "U", "NORAD_CAT_ID": 41174, "ELEMENT_SET_NO": 999, "REV_AT_EPOCH": 6168, "BSTAR": 0, "MEAN_MOTION_DOT": -9e-08, "MEAN_MOTION_DDOT": 0}, "tle": {"line1": "1 41174U 15079A   25351.78437511 -.00000009  00000+0  00000+0 0  9999", "line2": "2 41174  55.7156 106.2426 0002468 347.1145  12.8381  1.70474581 61685"}}, "geometry": {"type": "Point", "coordinates": [-8.170874183181512, -53.207661848851735]}}, {"type": "Feature", "properties": {"norad_id": 41175, "name": "GSAT0208 (GALILEO 11)", "group": "gnss", "lat": 45.323336343077436, "lon": -117.36861522373937, "alt_km": 23219.89156065853, "timestamp": "2025-12-19T08:58:49.581415+00:00", "meta": {"OBJECT_NAME": "GSAT0208 (GALILEO 11)", "OBJECT_ID": "2015-079B", "EPOCH": "2025-12-18T00:06:32.261184", "MEAN_MOTION": 1.70474394, "ECCENTRICITY": 0.00019057, "INCLINATION": 55.7144, "RA_OF_ASC_NODE": 106.2337, "ARG_OF_PERICENTER": 356.5595, "MEAN_ANOMALY": 3.3982, "EPHEMERIS_TYPE": 0, "CLASSIFICATION_TYPE": "U", "NORAD_CAT_ID": 41175, "ELEMENT_SET_NO": 999, "REV_AT_EPOCH": 6210, "BSTAR": 0, "MEAN_MOTION_DOT": -8e-08, "MEAN_MOTION_DDOT": 0}, "tle": {"line1": "1 41175U 15079B   25352.00454006 -.00000008  00000+0  00000+0 0  9993", "line2": "2 41175  55.7144 106.2337 0001905 356.5595   3.3982  1.70474394 62104"}}, "geometry": {"type": "Point", "coordinates": [-117.36861522373937, 45.323336343077436]}}, {"type": "Feature", "properties": {"norad_id": 41241, "name": "IRNSS-1E", "group": "gnss", "lat": -32.833120349275966, "lon": -24.56041355167993, "alt_km": 35780.67010881291, "timestamp": "2025-12-19T08:58:49.581428+00:00", "meta": {"OBJECT_NAME": "IRNSS-1E", "OBJECT_ID": "2016-003A", "EPOCH": "2025-12-18T14:48:50.843232", "MEAN_MOTION": 1.00271358, "ECCENTRICITY": 0.00216611, "INCLINATION": 32.8383, "RA_OF_ASC_NODE": 62.3675, "ARG_OF_PERICENTER": 188.4275, "MEAN_ANOMALY": 170.6574, "EPHEMERIS_TYPE": 0, "CLASSIFICATION_TYPE": "U", "NORAD_CAT_ID": 41241, "ELEMENT_SET_NO": 999, "REV_AT_EPOCH": 3626, "BSTAR": 0, "MEAN_MOTION_DOT": -3.05e-06, "MEAN_MOTION_DDOT": 0}, "tle": {"line1": "1 41241U 16003A   25352.61725513 -.00000305  00000+0  00000+0 0  9996", "line2": "2 41241  32.8383  62.3675 0021661 188.4275 170.6574  1.00271358 36265"}}, "geometry": {"type": "Point", "coordinates": [-24.56041355167993, -32.833120349275966]}}, {"type": "Feature", "properties": {"norad_id": 41328, "name": "GPS BIIF-12 (PRN 32)", "group": "gnss", "lat": 0.06933446997400514, "lon": 96.6392124175178, "alt_km": 20290.32292552796, "timestamp": "2025-12-19T08:58:49.581440+00:00", "meta": {"OBJECT_NAME": "GPS BIIF-12 (PRN 32)", "OBJECT_ID": "2016-007A", "EPOCH": "2025-12-18T09:02:43.184544", "MEAN_MOTION": 2.00560483, "ECCENTRICITY": 0.00924431, "INCLINATION": 55.4093, "RA_OF_ASC_NODE": 96.6333, "ARG_OF_PERICENTER": 243.7073, "MEAN_ANOMALY": 115.3258, "EPHEMERIS_TYPE": 0, "CLASSIFICATION_TYPE": "U", "NORAD_CAT_ID": 41328, "ELEMENT_SET_NO": 999, "REV_AT_EPOCH": 7221, "BSTAR": 0, "MEAN_MOTION_DOT": -3.5e-07, "MEAN_MOTION_DDOT": 0}, "tle": {"line1": "1 41328U 16007A   25352.37688871 -.00000035  00000+0  00000+0 0  9994", "line2": "2 41328  55.4093  96.6333 0092443 243.7073 115.3258  2.00560483 72219"}}, "geometry": {"type": "Point", "coordinates": [96.6392124175178, 0.06933446997400514]}}, {"type": "Feature", "properties": {"norad_id": 41330, "name": "COSMOS 2514 (751)", "group": "gnss", "lat": -34.48322902965667, "lon": 157.72976620700632, "alt_km": 19104.187230483723, "timestamp": "2025-12-19T08:58:49.581451+00:00", "meta": {"OBJECT_NAME": "COSMOS 2514 (751)", "OBJECT_ID": "2016-008A", "EPOCH": "2025-12-18T03:36:56.540160", "MEAN_MOTION": 2.13102695, "ECCENTRICITY": 0.00118514, "INCLINATION": 65.1307, "RA_OF_ASC_NODE": 319.2187, "ARG_OF_PERICENTER": 220.1582, "MEAN_ANOMALY": 139.7456, "EPHEMERIS_TYPE": 0, "CLASSIFICATION_TYPE": "U", "NORAD_CAT_ID": 41330, "ELEMENT_SET_NO": 999, "REV_AT_EPOCH": 7676, "BSTAR": 0, "MEAN_MOTION_DOT": -6.5e-07, "MEAN_MOTION_DDOT": 0}, "tle": {"line1": "1 41330U 16008A   25352.15065440 -.00000065  00000+0  00000+0 0  9998", "line2": "2 41330  65.1307 319.2187 0011851 220.1582 139.7456  2.13102695 76762"}}, "geometry": {"type": "Point", "coordinates": [157.72976620700632, -34.48322902965667]}}, {"type": "Feature", "properties": {"norad_id": 41384, "name": "IRNSS-1F", "group": "gnss", "lat": 2.109343828747054, "lon": -104.69119072728381, "alt_km": 35699.31128624268, "timestamp": "2025-12-19T08:58:49.581463+00:00", "meta": {"OBJECT_NAME": "IRNSS-1F", "OBJECT_ID": "2016-015A", "EPOCH": "2025-12-18T13:26:55.794336", "MEAN_MOTION": 1.00275515, "ECCENTRICITY": 0.00226475, "INCLINATION": 4.8955, "RA_OF_ASC_NODE": 101.1536, "ARG_OF_PERICENTER": 181.4277, "MEAN_ANOMALY": 38.9776, "EPHEMERIS_TYPE": 0, "CLASSIFICATION_TYPE": "U", "NORAD_CAT_ID": 41384, "ELEMENT_SET_NO": 999, "REV_AT_EPOCH": 3585, "BSTAR": 0, "MEAN_MOTION_DOT": 1.79e-06, "MEAN_MOTION_DDOT": 0}, "tle": {"line1": "1 41384U 16015A   25352.56036799  .00000179  00000+0  00000+0 0  9990", "line2": "2 41384   4.8955 101.1536 0022647 181.4277  38.9776  1.00275515 35858"}}, "geometry": {"type": "Point", "coordinates": [-104.69119072728381, 2.109343828747054]}}, {"type": "Feature", "properties": {"norad_id": 41434, "name": "BEIDOU-2 IGSO-6 (C13)", "group": "gnss", "lat": -59.27891880224163, "lon": -36.58852024862574, "alt_km": 35608.8597425177, "timestamp": "2025-12-19T08:58:49.581477+00:00", "meta": {"OBJECT_NAME": "BEIDOU-2 IGSO-6 (C13)", "OBJECT_ID": "2016-021A", "EPOCH": "2025-12-18T14:33:38.837664", "MEAN_MOTION": 1.00292299, "ECCENTRICITY": 0.00610054, "INCLINATION": 59.9732, "RA_OF_ASC_NODE": 39.8392, "ARG_OF_PERICENTER": 230.2031, "MEAN_ANOMALY": 129.1398, "EPHEMERIS_TYPE": 0, "CLASSIFICATION_TYPE": "U", "NORAD_CAT_ID": 41434, "ELEMENT_SET_NO": 999, "REV_AT_EPOCH": 3566, "BSTAR": 0, "MEAN_MOTION_DOT": -1.41e-06, "MEAN_MOTION_DDOT": 0}, "tle": {"line1": "1 41434U 16021A   25352.60669951 -.00000141  00000+0  00000+0 0  9990", "line2": "2 41434  59.9732  39.8392 0061005 230.2031 129.1398  1.00292299 35667"}}, "geometry": {"type": "Point", "coordinates": [-36.58852024862574, -59.27891880224163]}}]}